[{"OBJECT_NAME":"STARLINK-31438","OBJECT_ID":"2024-049D","EPOCH":"2026-03-09T05:37:05.824416","MEAN_MOTION":15.27576815,"ECCENTRICITY":6.751e-5,"INCLINATION":43.0033,"RA_OF_ASC_NODE":135.1016,"ARG_OF_PERICENTER":220.49,"MEAN_ANOMALY":139.5902,"EPHEMERIS_TYPE":0,"CLASSIFICATION_TYPE":"U","NORAD_CAT_ID":59234,"ELEMENT_SET_NO":999,"REV_AT_EPOCH":11245,"BSTAR":-8.8894822e-5,"MEAN_MOTION_DOT":-2.707e-5,"MEAN_MOTION_DDOT":0},{"OBJECT_NAME":"HERMES-2","OBJECT_ID":"2025-052AK","EPOCH":"2026-03-09T22:17:00.130272","MEAN_MOTION":15.28021069,"ECCENTRICITY":0.00063399,"INCLINATION":97.4004,"RA_OF_ASC_NODE":324.4926,"ARG_OF_PERICENTER":99.416,"MEAN_ANOMALY":260.7796,"EPHEMERIS_TYPE":0,"CLASSIFICATION_TYPE":"U","NORAD_CAT_ID":63243,"ELEMENT_SET_NO":999,"REV_AT_EPOCH":5485,"BSTAR":0.00034839454,"MEAN_MOTION_DOT":9.456e-5,"MEAN_MOTION_DDOT":0}]
